station,lat,long,zone,postcode,type
Abbey Road,51.53195199547294,0.0037233710983363487,3,E15 3NB,tube
Abbey Wood,51.49078429543708,0.12027197064065129,4,SE2 9RH,tube
Acton Central,51.508757351253415,-0.26343019532568895,2,W3 6BH,tube
Acton Main Line,51.516886495162936,-0.2676899480142479,3,W3 9EH,tube
Acton Town,51.50307098636339,-0.280302696832724,3,W3 8HN,tube
Addington Village,51.35623853949495,-0.03266510033206201,"3,4,5,6",CR0 5AR,tube
Addiscombe,51.37980817216768,-0.07321328251986768,"3,4,5,6",CR0 7AA,tube
Albany Park,51.435815816166325,0.1264446387204615,5,DA5 3HP,tube
Aldgate,51.5143422574978,-0.07562691232248626,1,EC3N 1AH,tube
Aldgate East,51.515081505698724,-0.07300146242073956,1,E1 7PT,tube
Alexandra Palace,51.59826262860595,-0.12014897136081185,3,N22 7ST,tube
All Saints,51.51047690641237,-0.01262488536034996,2,E14 0EH,tube
Alperton,51.54120878643842,-0.2995157534755783,4,HA0 4LL,tube
Amersham,51.674128328342675,-0.6065137678777907,9,HP6 5AZ,tube
Ampere Way,51.38229921988808,-0.12363679846190691,"3,4,5,6",CR0 3JX,tube
Anerley,51.41251661375114,-0.06513709987901907,4,SE20 8PY,tube
Angel,51.53296784539842,-0.10558144830378893,1,N1 8XB,tube
Angel Road,51.612420242475814,-0.04873291923914301,4,N18 3AY,tube
Archway,51.56549031545965,-0.13512157562147284,"2,3",N19 5RQ,tube
Arena,51.391522658988485,-0.058318549886912346,"3,4,5,6",SE25 4RY,tube
Arnos Grove,51.616229924551426,-0.13427021772184933,4,N11 1AN,tube
Arsenal,51.55854120559965,-0.1054999329611858,2,N5 1LP,tube
Avenue Road,51.406797904315376,-0.04944693697366336,"3,4,5,6",BR3 4NJ,tube
Baker Street,51.52312936605881,-0.15690419298618452,1,NW1 5LA,tube
Balham,51.443182314397006,-0.15268516199326135,3,SW12 9SG,tube
Bank,51.51334691914183,-0.08900012349437465,1,EC3V 3LA,tube
Banstead,51.32929277590573,-0.21313233354122454,6,SM7 1RB,tube
Barbican,51.520215126107836,-0.09772157809050226,1,EC1A 4JA,tube
Barking,51.53952124839739,0.08083161040306543,4,IG11 8TU,tube
Barking Riverside,51.5191121613515,0.11476948270172459,4,IG11 0BF,tube
Barkingside,51.58585076146283,0.08847664010592626,4,IG6 1NB,tube
Barnehurst,51.464780553326264,0.16094802394688462,6,DA7 6HQ,tube
Barnes,51.46712737869088,-0.24203305862495436,3,SW13 0LW,tube
Barnes Bridge,51.4722276417547,-0.25236261333116927,3,SW13 0NR,tube
Barons Court,51.490228334902,-0.21343014241789163,2,W14 9DP,tube
Battersea Park,51.47731808303144,-0.14812376039271144,2,SW8 4NB,tube
Battersea Power Station,51.479496343757326,-0.14200135136467834,1,SW11 8AL,tube
Bayswater,51.51211098317958,-0.18790157187820541,1,W2 4QH,tube
Beckenham Hill,51.42462603356409,-0.016495761968912667,4,SE6 3NU,tube
Beckenham Junction,51.410941601884666,-0.02570173911454748,4,BR3 1HY,tube
Beckenham Road,51.40952967986142,-0.043391921968959,"3,4,5,6",BR3 4RR,tube
Beckton,51.51437673300682,0.06152529715978421,3,E6 5NT,tube
Beckton Park,51.50890088618667,0.05482193904539788,3,E6 5NE,tube
Becontree,51.53958561974398,0.12688029269359377,5,RM9 4TP,tube
Beddington Lane,51.389239651469765,-0.14213843319054756,"3,4,5,6",CR0 4TF,tube
Belgrave Walk,51.400961356342684,-0.1784964722050899,"3,4,5,6",CR4 4NY,tube
Bellingham,51.433864862646075,-0.020411770293799158,3,SE6 3BT,tube
Belmont,51.34411959994204,-0.19948925087296165,5,SM2 6BH,tube
Belsize Park,51.55019061178192,-0.16397449102551867,2,NW3 2AL,tube
Belvedere,51.49195925487853,0.15203379329231395,5,DA17 6JW,tube
Bermondsey,51.49796067750633,-0.06433008981152362,2,SE16 4RX,tube
Berrylands,51.39876794902152,-0.28032147288452236,5,KT5 8LT,tube
Bethnal Green,51.527191653122124,-0.05539211145016204,2,E2 0ET,tube
Bethnal Green Rail,51.524282643710485,-0.06001374239914654,2,E2 6JL,tube
Bexley,51.44081477613684,0.1482039142729925,6,DA5 1AQ,tube
Bexleyheath,51.46355017881958,0.13336296607247622,5,DA7 4AA,tube
Bickley,51.400379644488545,0.044304031699826496,5,BR1 2EB,tube
Birkbeck,51.40386300465971,-0.0562862355401811,4,BR3 4TA,tube
Blackfriars,51.511586761695014,-0.10299538462450546,1,EC4V 4DD,tube
Blackheath,51.46540802722941,0.0083365947125195,3,SE3 9LE,tube
Blackhorse Lane,51.384746070367555,-0.07053394761446469,"3,4,5,6",CR0 6NL,tube
Blackhorse Road,51.58577656484627,-0.039625711465052844,3,E17 6JJ,tube
Blackwall,51.50783153133504,-0.007235165877666228,2,E14 9QB,tube
Bond Street,51.513797282327445,-0.14961360853164615,1,W1C 2HU,tube
Borough,51.50104871772216,-0.09419732263858394,1,SE1 1JX,tube
Boston Manor,51.49576500584812,-0.32474718262238134,4,TW8 9LQ,tube
Bounds Green,51.60703172061751,-0.12417706473479641,"3,4",N11 2EU,tube
Bow Church,51.52761517272713,-0.020499899177146366,2,E3 3AA,tube
Bow Road,51.52704176950966,-0.02435959063268143,2,E3 4DH,tube
Bowes Park,51.60724932125086,-0.11979221834416037,"3,4",N22 8NL,tube
Brent Cross,51.57659886839313,-0.21333583786630983,3,NW11 9UA,tube
Brentford,51.487535802426834,-0.309622531111568,4,TW8 9LF,tube
Brentwood,51.613610829903095,0.29967282145821766,7,CM14 4EW,tube
Brimsdown,51.65524456622429,-0.031092276891003114,5,EN3 7NA,tube
Brixton,51.46273661697816,-0.11455209682922837,2,SW9 8HE,tube
Brockley,51.46474960336704,-0.037748250467778785,2,SE4 2RW,tube
Bromley North,51.40894234206782,0.017235451958710183,4,BR1 3NN,tube
Bromley South,51.40000131982635,0.01735958049731488,5,BR1 1LX,tube
Bromley-by-Bow,51.524840183700945,-0.011682374353045397,"2,3",E3 3BT,tube
Brondesbury,51.54526203281226,-0.20283848334279223,2,NW6 7QL,tube
Brondesbury Park,51.54032502366848,-0.21047394410807815,2,NW6 6RP,tube
Broxbourne,51.747015552729756,-0.011024083782252812,9,EN10 7AW,tube
Bruce Grove,51.59401113363423,-0.07039898936228008,3,N17 8AD,tube
Buckhurst Hill,51.62657674004732,0.04671254142876922,5,IG9 5ET,tube
Burnham,51.52350398967751,-0.6463882083350451,,SL1 6JT,tube
Burnt Oak,51.60255148173764,-0.2643307082008112,4,HA8 0LA,tube
Bush Hill Park,51.641481848544466,-0.06928041222613097,5,EN1 1BA,tube
Bushey,51.645543532577356,-0.3847215327260823,8,WD19 4ST,tube
Caledonian Road,51.54788524982811,-0.11836086106469487,2,N7 9BA,tube
Caledonian Road and Barnsbury,51.543284389381675,-0.11520485594881438,2,N1 0SL,tube
Cambridge Heath,51.5320596731624,-0.0572032006374023,2,E2 7NA,tube
Camden Road,51.54185100885649,-0.13920311140104435,2,NW1 9LQ,tube
Camden Town,51.53996912160411,-0.14245237987648948,2,NW1 8NH,tube
Canada Water,51.498168331250874,-0.05080712084909722,2,SE16 7BB,tube
Canary Wharf,51.50357837512887,-0.019466840139324412,2,E14 4QS,tube
Canning Town,51.51387030350512,0.008305632748764395,3,E16 1DQ,tube
Cannon Street,51.51136194370192,-0.09025052641503478,1,EC4N 6AP,tube
Canonbury,51.54818823621243,-0.09257419532817909,2,N1 2PG,tube
Canons Park,51.60765009028535,-0.294391591494146,5,HA8 6RN,tube
Carpenders Park,51.628186088758376,-0.3858293151270327,7,WD19 7DT,tube
Carshalton,51.36842609544169,-0.16639832639559807,5,SM5 2HT,tube
Carshalton Beeches,51.357386565323054,-0.1694963244693624,5,SM5 3LG,tube
Castle Bar Park,51.52297312488631,-0.3315040699380954,4,W7 1AY,tube
Caterham,51.28216269622904,-0.07860729821309777,6,CR3 6LB,tube
Catford,51.444264871170326,-0.026538498556701602,3,SE6 4XT,tube
Catford Bridge,51.44469458702001,-0.024821875910075692,3,SE6 4RE,tube
Centrale,51.37576730003021,-0.10388810322163233,"3,4,5,6",CR0 1XT,tube
Chadwell Heath,51.56804709196961,0.12890111256817982,5,RM6 4BE,tube
Chafford Hundred,51.485554969647055,0.2874757055480307,7,RM16 6QQ,tube
Chalfont and Latimer,51.66790656389214,-0.5610677589431823,8,HP7 9PR,tube
Chalk Farm,51.54414883734655,-0.15373306950607965,2,NW3 2BP,tube
Chancery Lane,51.518493835819875,-0.11196202676241712,1,WC1V 6DR,tube
Charing Cross,51.50835842818622,-0.12480293723304417,1,WC2N 5HS,tube
Charlton,51.48683504159718,0.030941644861415016,3,SE7 7AB,tube
Cheam,51.35545989418584,-0.21421128092797112,5,SM3 8RZ,tube
Chelsfield,51.3562647640171,0.1089841204169227,6,BR6 6EU,tube
Chesham,51.705379023301255,-0.6114296352979314,9,HP5 1DH,tube
Cheshunt,51.70287327834175,-0.02388741542966125,8,EN8 9AQ,tube
Chessington North,51.364242952267205,-0.3004761235978513,6,KT9 2RT,tube
Chessington South,51.35670402954921,-0.30708901519388654,6,KT9 2DD,tube
Chigwell,51.61785799974183,0.07617921535230276,4,IG7 6NT,tube
Chingford,51.63325339188138,0.009514325530879747,5,E4 6AL,tube
Chipstead,51.30927470676411,-0.16944586783464247,6,CR5 3TD,tube
Chislehurst,51.405598505329735,0.05749182164774897,5,BR7 5NN,tube
Chiswick,51.48078105961514,-0.2670133177082469,3,W4 2QE,tube
Chiswick Park,51.494370277942714,-0.2677369179922983,3,W4 5NE,tube
Chorleywood,51.65426508092765,-0.5183339108571566,7,WD3 5ND,tube
Church Street,51.37370639339632,-0.10434682826811881,"3,4,5,6",CR0 1RN,tube
City Thameslink,51.513934900660104,-0.10361844855280276,1,EC4M 7JH,tube
Clapham Common,51.461803445807924,-0.1383149013879234,2,SW4 7AJ,tube
Clapham High Street,51.46546929922253,-0.132464501562701,2,SW4 6DQ,tube
Clapham Junction,51.464366507789435,-0.17031500054416623,2,SW11 2QP,tube
Clapham North,51.46491600472909,-0.1299100619146426,2,SW4 7TS,tube
Clapham South,51.45267624920499,-0.14798406833029198,"2,3",SW12 9DU,tube
Clapton,51.56156899642487,-0.05748945826500976,2,E5 9JP,tube
Clock House,51.408540496896926,-0.0407020924973615,4,BR3 4PR,tube
Cockfosters,51.65202423620424,-0.14991670977205104,5,EN4 0DZ,tube
Colindale,51.59523010894074,-0.2502875400711353,4,NW9 5HR,tube
Colliers Wood,51.41875889952969,-0.17741509804960517,3,SW19 2HR,tube
Coombe Lane,51.359789214486234,-0.05953157112180604,"3,4,5,6",CR0 5RF,tube
Coulsdon South,51.31580072052946,-0.13790308918271746,6,CR5 3EA,tube
Coulsdon Town,51.32245273545386,-0.13434705624020798,6,CR5 2JA,tube
Covent Garden,51.51276003353218,-0.12450689373696637,1,WC2E 9JT,tube
Crayford,51.44854705225513,0.17850271816040406,6,DA1 3PY,tube
Crews Hill,51.68447443881015,-0.10684410009928728,6,EN2 8AY,tube
Cricklewood,51.55842232306195,-0.21254793147676676,3,NW2 1HL,tube
Crofton Park,51.45517923504132,-0.0365465817645417,3,SE4 2RA,tube
Crossharbour and London Arena,51.495839957405124,-0.01493281309024971,2,E14 8AD,tube
Crouch Hill,51.57132690836755,-0.1171332840976015,3,N4 4AU,tube
Croxley,51.64700456011115,-0.4416037868779258,7,WD3 3DY,tube
Crystal Palace,51.418170235167786,-0.07260723245875281,"3,4",SE19 2AZ,tube
Custom House,51.50962210163043,0.025772510305280598,3,E16 3BX,tube
Cutty Sark for Maritime Greenwich,51.48194445322957,-0.01058186672360873,2,SE10 9SW,tube
Cyprus,51.50852668850102,0.06384075607487531,3,E6 5PH,tube
Dagenham Dock,51.526287437082075,0.14503101528852466,5,RM9 6RA,tube
Dagenham East,51.54418761328958,0.16583343330916664,5,RM10 8AA,tube
Dagenham Heathway,51.54121203550144,0.14767972147400332,5,RM9 5AN,tube
Dalston Junction,51.54609359547847,-0.07499420449881748,2,E8 3DL,tube
Dalston Kingsland,51.54866769606561,-0.07622692161799678,2,E8 2JS,tube
Debden,51.64549214152591,0.08380147525632461,6,IG10 3TG,tube
Denmark Hill,51.468200492925064,-0.09098786910291701,2,SE5 8BB,tube
Deptford,51.47889004331755,-0.026196319533912292,2,SE8 3NU,tube
Deptford Bridge,51.47447673839478,-0.022052428774292577,"2,3",SE10 8BU,tube
Devons Road,51.52225844074295,-0.0180077541751607,2,E3 3QX,tube
Dollis Hill,51.55185020227431,-0.23879775836475764,3,NW10 5NB,tube
Drayton Green,51.51600413801542,-0.32961125337869956,4,W13 0JX,tube
Drayton Park,51.553078136383206,-0.10577019910346774,2,N5 1NT,tube
Dundonald Road,51.41739780912452,-0.20752711020077022,"3,4,5,6",SW19 3QJ,tube
Ealing Broadway,51.51486148277942,-0.3020103761336258,3,W5 2NU,tube
Ealing Common,51.510248187933655,-0.2871514131053222,3,W5 3LD,tube
Earls Court,51.49135635619762,-0.19431380709514257,"1,2",SW5 9QA,tube
Earlsfield,51.44223850305,-0.18727268654317786,3,SW18 4SW,tube
East Acton,51.51626301045364,-0.2481122212813141,2,W12 0BP,tube
East Croydon,51.37571595390626,-0.09186349553662161,5,CR0 1LF,tube
East Dulwich,51.46162545364044,-0.08043657113245481,2,SE22 8EF,tube
East Finchley,51.5873322776344,-0.16474388444671967,3,N2 0NW,tube
East Ham,51.53924625194368,0.051516293480576195,"3,4",E6 2JA,tube
East India,51.5086840050616,-0.0023703315489933146,"2,3",E14 9PS,tube
East Putney,51.45887944035384,-0.21099823159594175,"2,3",SW15 6SN,tube
Eastcote,51.57655117614093,-0.39682329014980217,5,HA5 1QZ,tube
Eden Park,51.390796061854985,-0.02666971551408484,5,BR3 3HQ,tube
Edgware,51.61422917451505,-0.2750936620617057,5,HA8 7AW,tube
Edgware Road (Bakerloo),51.520645084536135,-0.17053954989974043,1,W2 1DY,tube
Edgware Road (Circle/District/Hammersmith and City),51.519997771093394,-0.16766825265117855,1,NW1 5DH,tube
Edmonton Green,51.62511560436454,-0.06163901923512943,4,N9 9DX,tube
Elephant and Castle,51.49584922002923,-0.10073871425628238,"1,2",SE1 6LW,tube
Elm Park,51.54912490990794,0.19725268428342685,6,RM12 4RW,tube
Elmers End,51.39829103016248,-0.049463832139958384,4,BR3 4EJ,tube
Elmstead Woods,51.41708070663452,0.04422934284306112,4,BR7 5EW,tube
Elstree and Borehamwood,51.65287512084613,-0.27982861491637107,6,WD6 3LS,tube
Eltham,51.45566230922668,0.05232930789844639,4,SE9 6UB,tube
Elverson Road,51.468372165038545,-0.016816376196184032,"2,3",SE8 4LA,tube
Embankment,51.50731229694681,-0.1223673356621198,1,WC2N 6NS,tube
Emerson Park,51.56911527219532,0.22022293719981073,6,RM11 2JR,tube
Enfield Chase,51.65272196544716,-0.0907042050119525,5,EN2 7AA,tube
Enfield Lock,51.67084607825663,-0.028391070061503106,6,EN3 6BW,tube
Enfield Town,51.65196994515368,-0.07932992172819582,5,EN1 1YB,tube
Epping,51.69368635497796,0.11382555351421217,6,CM16 4HW,tube
Epsom Downs,51.32365904938116,-0.23897022345966162,6,KT17 4JX,tube
Erith,51.48164796323426,0.17426129102681479,6,DA8 1TY,tube
Essex Road,51.54063315566608,-0.09636552536110189,2,N1 2SU,tube
Euston,51.528664114832,-0.13329647081915122,1,NW1 2DU,tube
Euston Square,51.525468382999584,-0.13534448844269154,1,NW1 2BN,tube
Ewell East,51.345243482663065,-0.2415029979804253,6,KT17 1QR,tube
Ewell West,51.34999072305868,-0.25708912919764193,6,KT17 1TU,tube
Fairlop,51.59610969417489,0.0905932799159299,4,IG6 3HD,tube
Falconwood,51.45908592772001,0.07850969338057627,4,SE9 2RN,tube
Farringdon,51.52019551919777,-0.10484306131676423,1,EC1M 6BY,tube
Feltham,51.44787850388705,-0.4098244711576437,6,TW13 4BY,tube
Fenchurch Street,51.511566579850786,-0.07855415245390515,1,EC3M 4AJ,tube
Fieldway,51.35131696970674,-0.02450326533326912,"3,4,5,6",CR0 0QA,tube
Finchley Central,51.60090293685636,-0.19322063471165793,4,N3 2RY,tube
Finchley Road,51.547095906434386,-0.18005055863249353,2,NW6 3BS,tube
Finchley Road and Frognal,51.55011920011288,-0.1836512006949723,2,NW3 5HT,tube
Finsbury Park,51.564635274841386,-0.10588148552890234,2,N4 3JU,tube
Forest Gate,51.54931616108423,0.024189091543256335,3,E7 0QH,tube
Forest Hill,51.43930822760034,-0.05332850425339094,3,SE23 3HD,tube
Fulham Broadway,51.480260585746336,-0.19554416152789666,2,SW6 1BY,tube
Fulwell,51.433941995205664,-0.34943851764673584,6,TW2 5NY,tube
Gallions Reach,51.50903426024889,0.07177539473002964,3,E6 6FZ,tube
Gants Hill,51.57655306294169,0.06608409806317944,4,IG2 6UD,tube
George Street,51.37396589757682,-0.09871810465748097,"3,4,5,6",CRO 1LA,tube
Gidea Park,51.581866086649704,0.20597698312646676,6,RM2 6BX,tube
Gipsy Hill,51.42446938789821,-0.08383516711319614,3,SE19 1PL,tube
Gloucester Road,51.494499259625194,-0.18354355757159108,1,SW7 4SF,tube
Golders Green,51.57221521685042,-0.19483455693826343,3,NW11 7RN,tube
Goldhawk Road,51.502076596636755,-0.2274040032488232,2,W12 8EG,tube
Goodge Street,51.52061289126984,-0.13480768911472682,1,W1T 2HF,tube
Goodmayes,51.566181168031925,0.11172965502874978,4,IG3 9UH,tube
Gordon Hill,51.66350208554497,-0.09447329927294221,5,EN2 0QU,tube
Gospel Oak,51.555405048065396,-0.15130103124520655,2,NW5 1LT,tube
Grange Hill,51.61348057933538,0.09227253016869208,4,IG7 5QB,tube
Grange Park,51.64262292064852,-0.0973144232582473,5,N21 1RE,tube
Gravel Hill,51.35454318729639,-0.04312169865017812,"3,4,5,6",CR0 5BJ,tube
Great Portland Street,51.52378856271794,-0.14396142408109036,1,W1W 5PP,tube
Green Park,51.50676025371464,-0.1424775744225331,1,W1J 7BX,tube
Greenford,51.54197950701463,-0.3458787331310219,4,UB6 8PR,tube
Greenwich,51.47754764253433,-0.014863083602737517,"2,3",SE10 8JQ,tube
Grove Park,51.43043268339476,0.022598502190233866,4,SE12 0PW,tube
Gunnersbury,51.49186296322991,-0.27516413141625035,3,W4 5RP,tube
Hackbridge,51.377860649835675,-0.15387919685035845,4,SM6 7BJ,tube
Hackney Central,51.54725735659255,-0.055589511802494954,2,E8 1LL,tube
Hackney Downs,51.54907798925833,-0.0601851048568028,2,E8 1LA,tube
Hackney Wick,51.54355836778055,-0.025259502770290876,2,E9 5ER,tube
Hadley Wood,51.66840258482291,-0.17658118783538726,6,EN4 0EJ,tube
Haggerston,51.53868460901327,-0.07559525776089235,2,E8 4DY,tube
Hainault,51.602845483752255,0.09410855083015249,4,IG6 3BD,tube
Hammersmith (District),51.49181941355715,-0.2228609258853042,2,W6 9YA,tube
Hammersmith (Met.),51.49348298668772,-0.22464015450070055,2,W6 0ED,tube
Hampstead,51.55654230644866,-0.17801455810844966,2,NW3 1QG,tube
Hampstead Heath,51.555199657702005,-0.16456618167757284,3,NW3 2QD,tube
Hampton,51.415878944953676,-0.3721352456690553,6,TW12 2HU,tube
Hampton Court,51.40229331804945,-0.3427571453065689,6,KT8 9AE,tube
Hampton Wick,51.414639531606156,-0.3131036039493127,6,KT1 4DQ,tube
Hanger Lane,51.5300715563412,-0.29299614055716494,3,W5 1DL,tube
Hanwell,51.512185406676046,-0.33805187778633095,4,W7 3EB,tube
Harlesden,51.536257908620385,-0.2574956703770174,3,NW10 8UT,tube
Harold Wood,51.59320260393047,0.23420407665837287,6,RM3 0BL,tube
Harringay,51.57735773978009,-0.10520825191282068,3,N4 1RW,tube
Harringay Green Lanes,51.5771457347569,-0.09821739122071835,3,N4 2NU,tube
Harrington Road,51.399790474914624,-0.060699954346870644,"3,4,5,6",SE25 4NF,tube
Harrow and Wealdstone,51.59259408808769,-0.3342526785741267,5,HA3 7RF,tube
Harrow-on-the-Hill,51.5793875695421,-0.33700151070609563,5,HA1 1BB,tube
Hatch End,51.609827902244945,-0.3691787730321793,6,HA5 5LZ,tube
Hatton Cross,51.466684612990974,-0.4233805529699787,"5,6",TW6 3PF,tube
Haydons Road,51.425457011112904,-0.18892935727955198,3,SW19 8SL,tube
Hayes,51.37573672611433,0.010142652470698841,5,BR2 7EN,tube
Hayes and Harlington,51.50304838798409,-0.4206418932877566,5,UB3 4BX,tube
Headstone Lane,51.602499044558435,-0.3569075069574213,5,HA2 6NB,tube
Heathrow Terminal 4,51.459779698532394,-0.4477295782660727,6,TW6 3AA,tube
Heathrow Terminal 5,51.470024624464,-0.4906474891242473,6,TW6 2GA,tube
Heathrow Terminals 1 2 3,51.471288661913334,-0.4524072136493198,6,TW6 1EB,tube
Hendon,51.58007459514265,-0.2386305172919683,"3,4",NW4 4PT,tube
Hendon Central,51.583132678162094,-0.22673413710008808,"3,4",NW4 3AS,tube
Herne Hill,51.45399120427041,-0.10256290770725068,"2,3",SE24 0JW,tube
Heron Quays,51.50338653553158,-0.021953532036309648,2,E14 4JH,tube
High Barnet,51.65168793826675,-0.1941653779796151,5,EN5 5RP,tube
High Street Kensington,51.50072913416872,-0.19156605549641917,1,W8 5SA,tube
Highams Park,51.608355995963855,-0.00013528591952880162,4,E4 9LA,tube
Highbury and Islington,51.54649533884997,-0.10408213923935299,2,N1 1SE,tube
Highgate,51.57764637933854,-0.1469348609337413,3,N6 5BH,tube
Hillingdon,51.553776781763695,-0.44989798162302097,6,UB10 9NR,tube
Hither Green,51.452401723236484,-0.0009709123245438066,3,SE13 5NF,tube
Holborn,51.51723554139566,-0.11984050660293674,1,WC2B 6AA,tube
Holland Park,51.50714614814041,-0.20655777541232848,2,W11 3RB,tube
Holloway Road,51.552815921064415,-0.11293569621685982,2,N7 8HS,tube
Homerton,51.54659538619648,-0.03851234702111631,2,E9 5SD,tube
Honor Oak Park,51.450648171040484,-0.044153121032106585,3,SE23 3LE,tube
Hornchurch,51.55435547079002,0.21892699941117588,6,RM12 6LS,tube
Hornsey,51.58647467109524,-0.11181563739975993,3,N8 8SE,tube
Hounslow,51.46250422727275,-0.361796248390842,5,TW3 3DL,tube
Hounslow Central,51.470925168799894,-0.36595812136688016,4,TW3 1JG,tube
Hounslow East,51.47370731480755,-0.3552753144989688,4,TW3 4AB,tube
Hounslow West,51.47310508637143,-0.385707619977202,5,TW3 3DH,tube
Hoxton,51.53139149136721,-0.07558564687618821,"1,2",E2 8HR,tube
Hyde Park Corner,51.502583765542106,-0.15247411263186791,1,SW1X 7LY,tube
Ickenham,51.56082433291199,-0.44157950126879947,6,UB10 8PD,tube
Ilford,51.55914235666761,0.06868519118076073,4,IG1 4DU,tube
Imperial Wharf,51.47493863003009,-0.1828375028016368,2,SW6 2HA,tube
Island Gardens,51.48795007358022,-0.010493303130196344,2,E14 3FA,tube
Isleworth,51.47503687348704,-0.3373287584598126,4,TW7 4BX,tube
Iver,51.50850130163604,-0.5067404189391109,,SL0 9AU,tube
Kenley,51.324600148977446,-0.10121971217203317,6,CR8 5JA,tube
Kennington,51.48866228881571,-0.1050706127740003,2,SE11 4JQ,tube
Kensal Green,51.53052384871879,-0.22471338113804362,2,NW10 5JT,tube
Kensal Rise,51.5342147055381,-0.2208209758254941,2,NW10 3NT,tube
Kensington (Olympia),51.497879357125825,-0.2103792397678828,2,W14 0NE,tube
Kent House,51.412717586739795,-0.04581555306120756,4,BR3 1JF,tube
Kentish Town,51.55000929428177,-0.14047126270052573,2,NW5 2AA,tube
Kentish Town West,51.546547731815146,-0.1467564086224741,2,NW5 3LD,tube
Kenton,51.581495770351395,-0.31521686082632067,4,HA3 0XS,tube
Kew Bridge,51.490004145325656,-0.2888464898886721,3,TW8 0EF,tube
Kew Gardens,51.476788671230366,-0.28538100667617433,"3,4",TW9 3PZ,tube
Kidbrooke,51.46269023696999,0.02830023918547795,3,SE3 9NF,tube
Kilburn,51.54694410286596,-0.2046327166992552,2,NW6 7QL,tube
Kilburn High Road,51.53726743072475,-0.19111310361342868,2,NW6 7QL,tube
Kilburn Park,51.53513522184343,-0.19396605493970595,2,NW6 5AD,tube
King George V,51.502008711932824,0.062206214109291724,3,E16 2JF,tube
King Henry's Drive,51.34536406699128,-0.020264757424528088,"3,4,5,6",CR0 0LH,tube
King's Cross,51.53079799248029,-0.1227564205266309,1,N1 9AL,tube
Kings Cross St. Pancras,51.53031226194627,-0.12387212868703427,1,N1 9AL,tube
Kingsbury,51.58487606349117,-0.2786016037131724,4,NW9 9EG,tube
Kingston,51.412641273140125,-0.3011410349213288,6,KT1 1UJ,tube
Kingswood,51.2947227949647,-0.21123322352395998,6,KT20 6EN,tube
Knightsbridge,51.50135463701893,-0.16066448462280936,1,SW3 1ED,tube
Knockholt,51.345752156534864,0.13083103983431965,6,TN14 7HR,tube
Ladbroke Grove,51.51721033175281,-0.21019816989179294,2,W10 6HJ,tube
Ladywell,51.456192106185256,-0.019244401125486595,3,SE13 7XB,tube
Lambeth North,51.49912976538859,-0.11176826046020598,1,SE1 7XG,tube
Lancaster Gate,51.511890658328326,-0.17542992678979158,1,W2 4QH,tube
Langdon Park,51.51888391608367,-0.015213798947704839,2,E14 6NW,tube
Langley,51.50806077346535,-0.541770556061928,,SL3 6DB,tube
Latimer Road,51.51395774487751,-0.21745966331724165,2,W10 6SZ,tube
Lea Bridge,51.56663620385152,-0.03668315766277238,3,E10 7PG,tube
Lebanon Road,51.37519886025052,-0.08497364875981667,"3,4,5,6",CR0 6SF,tube
Lee,51.449458544442464,0.013364692382120524,3,SE12 9JG,tube
Leicester Square,51.51129097417173,-0.12824214662980674,1,WC2H 0AP,tube
Lewisham,51.46488069551227,-0.012432700898009246,"2,3",SE13 7RY,tube
Leyton,51.55813226231266,-0.006465331580603041,3,E10 5PS,tube
Leyton Midland Road,51.56936422878631,-0.008066347430350757,3,E10 6JT,tube
Leytonstone,51.56852230672617,0.009140451957061277,"3,4",E11 1HE,tube
Leytonstone High Road,51.563807360364464,0.008254468835955844,3,E11 4RE,tube
Limehouse,51.51231210167662,-0.03938007766249374,2,E14 7JD,tube
Liverpool Street,51.51759813225402,-0.08224962188885442,1,EC2M 7PR,tube
Lloyd Park,51.36427540535568,-0.08074627269808782,"3,4,5,6",CR0 5RA,tube
London Bridge,51.50467420930433,-0.08600559774813961,1,SE1 2SW,tube
London City Airport,51.503689745247414,0.04787271558352588,3,E16 2DS,tube
London Fields,51.54071874924931,-0.057699686220921656,2,E8 3PH,tube
Loughborough Junction,51.46667873454398,-0.10249734093063136,2,SW9 8SA,tube
Loughton,51.641570570828016,0.055279079287447894,6,IG10 4PD,tube
Lower Sydenham,51.42484679051851,-0.033330341481054016,4,SE26 5AU,tube
Maida Vale,51.529994755621196,-0.18543264493585596,2,W9 1JS,tube
Maidenhead,51.518667426954124,-0.7226749105747798,,SL6 1EW,tube
Malden Manor,51.38460911046991,-0.2611204124317338,4,KT3 5PN,tube
Manor House,51.570746986190926,-0.09568497573192744,"2,3",N4 1BZ,tube
Manor Park,51.55285442759388,0.04572387018697303,"3,4",E12 5EP,tube
Mansion House,51.5120915984511,-0.09419765724378423,1,EC4N 6JD,tube
Marble Arch,51.51396523465938,-0.15857121479275763,1,W1C 2JS,tube
Maryland,51.54566828299751,0.005681654184252551,3,E15 1SA,tube
Marylebone,51.52239640326536,-0.16349256231091294,1,NW1 6JJ,tube
Maze Hill,51.48301366443111,0.0032048968185599933,3,SE10 9XG,tube
Meridian Water,51.60831170899128,-0.05095990638439402,4,N18 3HF,tube
Merton Park,51.41339128096901,-0.2013420288124167,"3,4,5,6",SW19 3HA,tube
Mile End,51.525310919564504,-0.0326660842711517,2,E3 4DH,tube
Mill Hill Broadway,51.6128707220669,-0.24953706487303023,4,NW7 2JU,tube
Mill Hill East,51.60831630368604,-0.20989571031440662,4,NW7 1BS,tube
Mitcham,51.397488336519444,-0.17087164547873002,"3,4,5,6",CR4 4BD,tube
Mitcham Eastfields,51.408383659999,-0.154001717426646,3,CR4 2ND,tube
Mitcham Junction,51.39304231241258,-0.15743664222558937,4,CR4 4HN,tube
Monument,51.51063027735101,-0.0861883132610571,1,EC4R 9AA,tube
Moor Park,51.62992995953362,-0.4329130164958966,"6,7",HA6 2JQ,tube
Moorgate,51.51843699583112,-0.08901768741961913,1,EC2M 6TX,tube
Morden,51.40218564474951,-0.1948519795190437,4,SM4 5AZ,tube
Morden Road,51.408871575514766,-0.19280567509339624,"3,4,5,6",SW19 3BX,tube
Morden South,51.39630737175914,-0.2003015597212806,4,SM4 5AN,tube
Mornington Crescent,51.53436199274684,-0.13874434872471417,2,NW1 2JA,tube
Mortlake,51.46816750082646,-0.2672033097597616,3,SW14 8LN,tube
Motspur Park,51.395319236610256,-0.23943974264133794,4,KT3 6JJ,tube
Mottingham,51.43982506175577,0.05032420232974115,4,SE9 4EN,tube
Mudchute,51.491236163479066,-0.01495994488107933,2,E14 9UW,tube
Neasden,51.554627310041155,-0.2501150416936122,3,NW10 1PH,tube
New Addington,51.34259048309321,-0.01738332706935074,"3,4,5,6",CR0 0DE,tube
New Barnet,51.64853648940239,-0.17296971228475674,5,EN5 1QT,tube
New Beckenham,51.41670549342136,-0.03530494925080498,4,BR3 1QW,tube
New Cross,51.47642936493697,-0.03227881144505215,2,SE14 6LD,tube
New Cross Gate,51.475264866034166,-0.039529051848319986,2,SE14 6AR,tube
New Eltham,51.43769077832163,0.07044461868946926,4,SE9 2AB,tube
New Malden,51.4035554892389,-0.25621810234155296,4,KT3 4PX,tube
New Southgate,51.61409343513603,-0.14300977485816477,4,N11 1QH,tube
Newbury Park,51.57563850646377,0.09030315819789672,4,IG2 7RN,tube
Nine Elms,51.48000104922924,-0.12850098283072034,1,SW8 2NA,tube
Norbiton,51.41190888768759,-0.28419994319310604,5,KT2 7AZ,tube
Norbury,51.41118830417269,-0.12279940097347328,3,SW16 3RW,tube
North Acton,51.523432004609894,-0.2597295239222282,"2,3",W3 6UP,tube
North Dulwich,51.45448166721483,-0.08791868027372894,"2,3",SE21 7BX,tube
North Ealing,51.51762181807098,-0.28899354775317115,3,W5 3AF,tube
North Greenwich,51.5002551610895,0.003586259125950833,"2,3",SE10 0PH,tube
North Harrow,51.58463070784392,-0.3626329855990683,5,HA2 7SR,tube
North Sheen,51.46541914451982,-0.28639746196940996,3,TW9 4QA,tube
North Wembley,51.56239579644328,-0.30394821391329097,4,HA0 3NT,tube
Northfields,51.50049115689572,-0.31506481298857175,3,W13 9QU,tube
Northolt,51.54821230018008,-0.3684405875976204,5,UB5 4AA,tube
Northolt Park,51.55761846530492,-0.35943418885315115,5,UB5 4XE,tube
Northumberland Park,51.60201564713907,-0.05413202547173207,3,N17 0HY,tube
Northwick Park,51.578508169653034,-0.3181993860133686,4,HA3 0AT,tube
Northwood,51.611212919581355,-0.42383777619581775,6,HA6 2XL,tube
Northwood Hills,51.600801977914315,-0.40931134805689284,6,HA6 1NZ,tube
Norwood Junction,51.39695420145057,-0.07520985620618181,4,SE25 5AG,tube
Notting Hill Gate,51.50937501801177,-0.19592161622639087,"1,2",W11 3HT,tube
Nunhead,51.466579898861724,-0.05367974248045391,2,SE15 3XE,tube
Oakleigh Park,51.63767609370897,-0.16619496499383593,4,EN5 1BU,tube
Oakwood,51.64763774735996,-0.1318535388133937,5,N14 4UT,tube
Ockendon,51.52199012375081,0.29048348002345253,7,RM15 6PD,tube
Old Street,51.525581330743044,-0.08762295738735129,1,EC1V 9NR,tube
Orpington,51.373520195924534,0.08902890193883431,6,BR6 0SX,tube
Osterley,51.48121623575927,-0.3520960888490031,4,TW7 4PU,tube
Oval,51.48141241737747,-0.11332107512133172,2,SE11 4PP,tube
Oxford Circus,51.51522317440166,-0.1408361701333405,1,W1C 2JS,tube
Paddington,51.51539350022652,-0.17573675026577226,1,W2 1RH,tube
Palmers Green,51.61878657015084,-0.11027249932298475,4,N13 4PN,tube
Park Royal,51.526833556086295,-0.28492891296710476,3,W5 3EL,tube
Parsons Green,51.47495982565945,-0.20112449001225277,2,SW6 4HU,tube
Peckham Rye,51.46951125269604,-0.06998355290619437,2,SE15 5DQ,tube
Penge East,51.419975262275884,-0.0544952646379757,4,SE20 7BQ,tube
Penge West,51.41806283133318,-0.06064576434263841,4,SE20 8NU,tube
Perivale,51.53634129467288,-0.3230704159011666,4,UB6 7NP,tube
Petts Wood,51.38859911569542,0.07448003010016278,5,BR5 1LZ,tube
Phipps Bridge,51.403376431529686,-0.18229678694821205,"3,4,5,6",CR4 3QN,tube
Piccadilly Circus,51.50969653217059,-0.13371159615907627,1,W1J 9HS,tube
Pimlico,51.48955264664939,-0.13310825739138485,1,SW1V 2JA,tube
Pinner,51.59236105660715,-0.38122378173761046,5,HA5 5LZ,tube
Plaistow,51.53128836681778,0.017780641996985185,3,E13 0DY,tube
Plumstead,51.48979256526223,0.08429961697091634,4,SE18 7EA,tube
Ponders End,51.642730637439406,-0.03452510445986845,5,EN3 4LA,tube
Pontoon Dock,51.502216272914424,0.03332570754892505,3,E16 2SB,tube
Poplar,51.507588044837625,-0.017275493292517402,2,E14 0DS,tube
Preston Road,51.57210324779927,-0.29497200748306684,4,HA3 0PS,tube
Prince Regent,51.50943460724026,0.03348857411467715,3,E16 3HE,tube
Pudding Mill Lane,51.534327836050565,-0.012768511944547117,"2,3",E15 2PH,tube
Purfleet,51.48117339669361,0.23677483909718777,7,RM16 1PL,tube
Purley,51.337363370371314,-0.1136135170910838,6,CR8 2AP,tube
Purley Oaks,51.34698918049688,-0.09881533250056317,6,CR2 0ND,tube
Putney,51.46095217815324,-0.21660337079246245,"2,3",SW15 1RT,tube
Putney Bridge,51.46786499705636,-0.20936541430195443,2,SW6 3UH,tube
Queens Park,51.53431231776354,-0.20479814695067167,2,NW6 6HJ,tube
Queens Road Peckham,51.47428461792391,-0.05735497866902937,2,SE15 2JR,tube
Queensbury,51.59388250931327,-0.286331592620629,4,HA8 5NP,tube
Queenstown Road,51.47495888831451,-0.1473553108451531,2,SW8 3RX,tube
Queensway,51.51044892854765,-0.1874199010483689,1,W2 4SS,tube
Rainham,51.517340830335705,0.1906919776381577,6,RM13 9YH,tube
Ravensbourne,51.41387036990734,-0.006937815529845742,4,BR3 5HE,tube
Ravenscourt Park,51.494067596546,-0.23596922986014346,2,W6 0UG,tube
Rayners Lane,51.575396127388515,-0.37106080574871114,5,HA5 5EG,tube
Raynes Park,51.409374971183624,-0.22991293627460938,4,SW20 8NE,tube
Reading,51.458784566812625,-0.9718776209963325,,RG1 1LZ,tube
Rectory Road,51.55876336735922,-0.06838566445429543,2,N16 7QB,tube
Redbridge,51.576366994360605,0.045394044087077395,4,IG4 5BG,tube
Reedham,51.33144151324279,-0.12340262353472173,6,CR8 2DG,tube
Reeves Corner,51.375277028630975,-0.10637977757836906,"3,4,5,6",CR0 1XP,tube
Regents Park,51.523810437772845,-0.1453444097205957,1,NW1 5HA,tube
Richmond,51.46323239395917,-0.30173912870492936,4,TW9 2AZ,tube
Rickmansworth,51.640322241933696,-0.4736845710128753,7,WD3 1QY,tube
Riddlesdown,51.332674670332864,-0.09949366690815283,6,CR8 1HN,tube
Roding Valley,51.61695652081232,0.04402620712663845,4,IG9 6LN,tube
Romford,51.57464189428389,0.18305527427580953,6,RM1 1SX,tube
Rotherhithe,51.501594420702716,-0.0529662962549398,2,SE16 4LF,tube
Royal Albert,51.50849394631005,0.045177145189641374,3,E16 2QD,tube
Royal Oak,51.5182940459234,-0.18882367154685417,2,W2 6ET,tube
Royal Victoria,51.50905526715448,0.017965412588985888,3,E16 1DE,tube
Ruislip,51.572161233876166,-0.4212349155921323,6,HA4 8LD,tube
Ruislip Gardens,51.55995951052218,-0.40929410137403394,5,HA4 6LG,tube
Ruislip Manor,51.573450901149116,-0.41284934443184823,6,HA4 9AA,tube
Russell Square,51.523012836646224,-0.12459019687261923,1,WC1N 1LG,tube
Sanderstead,51.34824610257355,-0.09370849954893394,6,CR2 0PL,tube
Sandilands,51.37502214682385,-0.0780265894240146,"3,4,5,6",CR0 5PN,tube
Selhurst,51.392185625136364,-0.08989903662310264,4,SE25 6LL,tube
Seven Kings,51.56399351215581,0.09631957529138686,4,IG3 8RE,tube
Seven Sisters,51.58336204399537,-0.07246682251889108,3,N15 5LA,tube
Shadwell,51.511300064669385,-0.05691920694185812,2,E1 2QE,tube
Shenfield,51.630873639892386,0.32995227076530625,7,CM15 8JD,tube
Shepherds Bush,51.504531795613886,-0.2185191566688487,2,W12 8LH,tube
Shepherds Bush Market,51.50588033819017,-0.22740049041020913,2,W12 7JD,tube
Shoreditch High Street,51.523466695343075,-0.07708742433139697,1,E1 6AW,tube
Shortlands,51.40560237398424,0.0027675443897766973,4,BR2 0JA,tube
Sidcup,51.43439862959479,0.10331535971945431,5,DA15 7AW,tube
Silver Street,51.61524236180803,-0.07258974125866192,4,N18 1QX,tube
Slade Green,51.46774797004993,0.19051838969715912,6,DA8 2NX,tube
Sloane Square,51.492359510480554,-0.15648885605702362,1,SW1W 8BB,tube
Slough,51.51187888370566,-0.5915248252758044,,SL1 1XW,tube
Snaresbrook,51.58089131157066,0.021463927810755047,4,E11 1QE,tube
South Acton,51.49968538827372,-0.27021520326622445,3,W3 0DS,tube
South Bermondsey,51.48767652828431,-0.05475482106707225,2,SE16 2PL,tube
South Croydon,51.36275004887511,-0.09251736279417738,5,CR2 7PA,tube
South Ealing,51.50164352033085,-0.30704023946122333,3,W5 4QB,tube
South Greenford,51.53402700823884,-0.33673747540350063,4,UB6 2WE,tube
South Hampstead,51.54147655809487,-0.17837119811462532,2,NW8 0DJ,tube
South Harrow,51.56467959482167,-0.35189396373160503,5,HA2 8HN,tube
South Kensington,51.494071083255236,-0.17392302133763954,1,SW7 2NB,tube
South Kenton,51.571043947551274,-0.3081429717620929,4,HA9 8QT,tube
South Merton,51.403240220781235,-0.2055502988870153,4,SW20 9JT,tube
South Quay,51.50086357890648,-0.018460692665022115,2,E14 9SH,tube
South Ruislip,51.55688965147795,-0.3991159010068219,5,HA4 6TP,tube
South Tottenham,51.580402471228126,-0.0718559563059047,3,N15 6ND,tube
South Wimbledon,51.41536039779992,-0.19197454409905726,"3,4",SW19 1DE,tube
South Woodford,51.59155266475493,0.02794307837440943,4,E18 1JJ,tube
Southall,51.50595629378949,-0.3787111814415624,4,UB2 4AA,tube
Southbury,51.648433641300066,-0.05298331040026236,5,EN3 4HW,tube
Southfields,51.44488297741004,-0.20660938309093127,3,SW18 5RJ,tube
Southgate,51.63237564173069,-0.1277700463078405,4,N14 5BH,tube
Southwark,51.50385344972166,-0.1057949389250921,1,SE1 8NW,tube
St Helier,51.38991183992137,-0.19901458965509025,4,SM4 6SF,tube
St James Street,51.580608613025774,-0.03280456167946685,3,E17 7PJ,tube
St Johns,51.46897525930413,-0.023240661806141462,2,SE8 4EW,tube
St Margarets,51.4552054673299,-0.3213242418672531,4,TW1 2LH,tube
St Mary Cray,51.39475958639216,0.10721790023828982,6,BR5 3SN,tube
St Pancras,51.5305541987497,-0.12550578105978247,1,NW1 2QP,tube
St. James's Park,51.49960957772611,-0.13387875434112476,1,SW1H 0BD,tube
St. Johns Wood,51.53485412839329,-0.1740648386620702,2,NW8 6DN,tube
St. Pauls,51.514835138739876,-0.09757100011698537,1,EC2V 6AA,tube
Stamford Brook,51.49444956856966,-0.24524630602792208,2,W6 0SB,tube
Stamford Hill,51.57444748083396,-0.07666834157285661,3,N16 5AG,tube
Stanmore,51.619672950483576,-0.3030992875952985,5,HA7 4PD,tube
Star Lane,51.52060426064486,0.004191002628240693,3,E16 4SR,tube
Stepney Green,51.521995758615454,-0.04738252319485509,2,E1 4AQ,tube
Stockwell,51.47215905711563,-0.12284630335652602,2,SW9 9AE,tube
Stoke Newington,51.56463749414495,-0.07233539437869028,2,N16 6YA,tube
Stonebridge Park,51.54398610565641,-0.2754004371046793,3,NW10 0RW,tube
Stoneleigh,51.363363646997875,-0.24870965347339166,5,KT17 2JA,tube
Stratford,51.54169257587399,-0.003751641027190752,3,E15 1AZ,tube
Stratford High Street,51.5381489524464,-0.0010803560037945415,3,E15 3PA,tube
Stratford International,51.5448085230875,-0.008778434012917901,3,E15 2LZ,tube
Strawberry Hill,51.439747278051925,-0.33961772438604887,5,TW1 4PP,tube
Streatham,51.425845648377425,-0.13232549573614677,3,SW16 6HP,tube
Streatham Common,51.41898445090681,-0.13572616403530707,3,SW16 5NT,tube
Streatham Hill,51.43846015875234,-0.1276814805405161,3,SW2 4PA,tube
Sudbury and Harrow Road,51.5544932686619,-0.31592623593724883,4,HA0 2HA,tube
Sudbury Hill,51.55733901102981,-0.3363921085382283,4,HA1 3RA,tube
Sudbury Hill Harrow,51.55834172569072,-0.3354466865621598,4,HA1 3RJ,tube
Sudbury Town,51.55139692710825,-0.3163434799075774,4,HA0 2LA,tube
Sundridge Park,51.413393835270476,0.02036510902919482,4,BR1 3TR,tube
Surbiton,51.3925990366125,-0.30438455443494045,6,KT6 4PE,tube
Surrey Quays,51.49326678162275,-0.04752998752630568,2,SE16 2UE,tube
Sutton,51.35950582407127,-0.19130200904498534,5,SM1 1JA,tube
Sutton Common,51.375554374568246,-0.1969199101341748,4,SM1 3HY,tube
Swiss Cottage,51.5430345616616,-0.1756266026411379,2,NW3 6HY,tube
Sydenham,51.42734116410619,-0.05508867076422299,3,SE26 5EU,tube
Sydenham Hill,51.432575758635586,-0.08023020750906708,3,SE21 7HW,tube
Syon Lane,51.481474155405564,-0.32649502836648486,4,TW7 5NT,tube
Tadworth,51.29162747942275,-0.2360080126476625,6,KT20 5SP,tube
Taplow,51.52356084157688,-0.6813848514102004,,SL6 0NU,tube
Tattenham Corner,51.3091809150244,-0.242566269387599,6,KT18 5PR,tube
Teddington,51.424496954268065,-0.3327053305694848,6,TW11 9AA,tube
Temple,51.51104042360467,-0.11372574953125439,1,WC2R 2PH,tube
Thames Ditton,51.388615519946164,-0.33829283096615254,6,KT7 0PA,tube
Theobalds Grove,51.69237253480553,-0.034748134343809224,7,EN8 7BG,tube
Therapia Lane,51.385685581839276,-0.1290171058922472,"3,4,5,6",CR0 3DD,tube
Theydon Bois,51.67255225418,0.10289073688168189,6,CM16 7EU,tube
Thornton Heath,51.398480916027154,-0.10043316453580951,4,CR7 8RX,tube
Tolworth,51.3768428600788,-0.27962011044213986,5,KT5 9NU,tube
Tooting,51.41989637122428,-0.16100247062519113,3,SW17 9JR,tube
Tooting Bec,51.435837804955476,-0.15970049083173754,3,SW17 9AH,tube
Tooting Broadway,51.42704887092591,-0.16868452577766038,3,SW17 0SU,tube
Tottenham Court Road,51.516210657936185,-0.1311104379402324,1,W1D 2DA,tube
Tottenham Hale,51.58799768229062,-0.06018782248556836,3,N17 9LR,tube
Totteridge and Whetstone,51.63024642876388,-0.17935426123339493,4,N20 9QP,tube
Tower Gateway,51.51039252305748,-0.07440987691153345,1,EC3N 1JL,tube
Tower Hill,51.51039415022928,-0.07670119812097691,1,EC3N 4DJ,tube
Tufnell Park,51.55644057500823,-0.13774217405279293,2,N19 5QB,tube
Tulse Hill,51.4397972578558,-0.10512250845882604,3,SE27 9BW,tube
Turkey Street,51.67265358634988,-0.0472299312310293,6,EN3 5TT,tube
Turnham Green,51.49518152685563,-0.2545245642842539,2,W4 1LR,tube
Turnpike Lane,51.59035796825513,-0.1028050405776601,3,N15 3NX,tube
Twickenham,51.450250410920496,-0.3288602200739823,5,TW1 1BD,tube
Twyford,51.47553252815794,-0.8633069929836112,,RG10 9NA,tube
Upminster,51.558763771001516,0.2514008048009922,6,RM14 2TD,tube
Upminster Bridge,51.55771918780094,0.23454189192904223,6,RM12 6PL,tube
Upney,51.53840581666546,0.10153174466413689,4,IG11 9LS,tube
Upper Holloway,51.56362309586845,-0.1291093626941063,2,N19 4DJ,tube
Upper Warlingham,51.308772130153464,-0.07748166156794639,6,CR3 0EP,tube
Upton Park,51.536628259878114,0.03454183972360732,3,E13 9AP,tube
Uxbridge,51.54645372786724,-0.47710154642097474,6,UB8 1JZ,tube
Vauxhall,51.48573560145266,-0.12382995197041927,"1,2",SW8 1SR,tube
Victoria,51.49642371956767,-0.14392070512630392,1,SW1E 5JX,tube
Waddon,51.36737906715266,-0.11739407581295784,5,CR0 4NA,tube
Waddon Marsh,51.37708276115934,-0.11798746414806431,"3,4,5,6",CR0 4XT,tube
Wallington,51.36033129956505,-0.15086383380492027,5,SM6 0DZ,tube
Waltham Cross,51.68525721552798,-0.026564257209644355,7,EN8 7LU,tube
Walthamstow Central,51.58301808337606,-0.019940545005550973,3,E17 7LP,tube
Walthamstow Queens Road,51.58154615511213,-0.02384394330088981,3,E17 7QZ,tube
Wandle Park,51.373400532627585,-0.1132533204383674,"3,4,5,6",CR0 4JS,tube
Wandsworth Common,51.44636533894144,-0.1635369794154477,3,SW12 8NL,tube
Wandsworth Road,51.47022297701061,-0.13903767462851535,2,SW8 4PA,tube
Wandsworth Town,51.46103377041173,-0.1879100356809231,2,SW18 1SU,tube
Wanstead,51.574902199570865,0.02876047243622503,4,E11 2NT,tube
Wanstead Park,51.5517781243521,0.026389943051784676,3,E7 0HU,tube
Wapping,51.50434022750495,-0.05586081435523968,2,E1W 3PA,tube
Warren Street,51.524579764761874,-0.13827833053848032,1,NW1 3AA,tube
Warwick Avenue,51.52310413807906,-0.1829532911134564,2,W9 2PT,tube
Waterloo,51.50314645678346,-0.11325925125819598,1,SE1 7NY,tube
Waterloo East,51.50416843357953,-0.1091536368939238,1,SE1 8NH,tube
Watford,51.6576044159566,-0.41726999672995363,7,WD18 7LE,tube
Watford High Street,51.65265306624417,-0.39169672037794695,8,WD17 2EG,tube
Watford Junction,51.66388236768592,-0.39617194802380823,,WD17 1ET,tube
Wellesley Road,51.375367381230255,-0.09752490808671423,"3,4,5,6",CR0 2DD,tube
Welling,51.464777257657985,0.10177503908920635,4,DA16 3AT,tube
Wembley Central,51.55186429753856,-0.2963923219160409,4,HA9 6AG,tube
Wembley Park,51.563322003491564,-0.2792425481111569,4,HA9 9AA,tube
Wembley Stadium,51.554654104754995,-0.2860464419726446,4,HA9 8BQ,tube
West Acton,51.51776969314101,-0.28065717090448683,3,W3 6UP,tube
West Brompton,51.48732859696135,-0.19553880967042786,2,SW5 9JX,tube
West Croydon,51.378552009432326,-0.10203429230263733,5,CR0 2TA,tube
West Drayton,51.510070447632664,-0.4721760838505147,6,UB7 9DY,tube
West Dulwich,51.440911675311916,-0.09067267591985909,3,SE21 8HN,tube
West Ealing,51.513624683972374,-0.3197829486921899,3,W13 0NQ,tube
West Finchley,51.60926242118551,-0.18891710747921014,4,N3 1NT,tube
West Ham,51.528525530726974,0.005317393832787913,3,E15 3BN,tube
West Hampstead,51.54747402267271,-0.19112658344309522,2,NW6 2LX,tube
West Hampstead Thameslink,51.548628809928914,-0.1925375175501863,2,NW6 1XJ,tube
West Harrow,51.578923661261655,-0.3538466898684307,5,HA1 4HE,tube
West India Quay,51.50676262660098,-0.02058244712808169,2,E14 4ED,tube
West Kensington,51.490109027210565,-0.20620369221802679,2,W14 9NL,tube
West Norwood,51.43124094913318,-0.1031891342990401,3,SE27 0HS,tube
West Ruislip,51.56958715703546,-0.4378601343740381,6,HA4 7WD,tube
West Silvertown,51.50288447390751,0.022246046681022418,3,E16 2AT,tube
West Sutton,51.36614980218212,-0.20464454602828344,5,SM1 2EH,tube
West Wickham,51.38128418000954,-0.014576330410962754,5,BR4 0PY,tube
Westbourne Park,51.520988514909256,-0.20088251281474612,2,W11 1AB,tube
Westcombe Park,51.48450892773305,0.01774570026305544,3,SE3 7EQ,tube
Westferry,51.50963810743974,-0.026323137101783887,2,E14 8AD,tube
Westminster,51.501401389193255,-0.1250020783467796,1,SW1A 2JR,tube
White City,51.51223207227981,-0.2246319285152728,2,W12 7RH,tube
White Hart Lane,51.60503465751185,-0.07087032653563699,3,N17 7RP,tube
Whitechapel,51.5195876908872,-0.05942048498810923,2,E1 1BY,tube
Whitton,51.44958760708497,-0.35768205341595,5,TW2 7LG,tube
Whyteleafe,51.309929187849875,-0.08113516500500571,6,CR3 0AD,tube
Whyteleafe South,51.30348968019657,-0.0767125144057694,6,CR3 0BD,tube
Willesden Green,51.54937292482699,-0.22240760124964687,"2,3",NW2 4QT,tube
Willesden Junction,51.53223356661704,-0.24390913983767806,3,NW10 4RA,tube
Wimbledon,51.4211075087935,-0.20666283344005315,3,SW19 1PS,tube
Wimbledon Chase,51.40953058388224,-0.21408976708418048,3,SW20 8DB,tube
Wimbledon Park,51.4345806287444,-0.1991862729730618,3,SW19 7DZ,tube
Winchmore Hill,51.63388669665079,-0.10091693272974836,4,N21 3NG,tube
Wood Green,51.59745355165763,-0.10952658877613092,3,N22 8HH,tube
Wood Lane,51.5096578296917,-0.22447260570993852,2,W12 7DS,tube
Wood Street,51.586669943466376,-0.0019538980131841846,4,E17 3NZ,tube
Woodford,51.607201902790344,0.034056202416625964,4,IG8 7QE,tube
Woodgrange Park,51.54905261091028,0.04457249622679908,"3,4",E7 8AA,tube
Woodmansterne,51.3190183289485,-0.15426212716203255,6,CR5 3HS,tube
Woodside,51.38709757861517,-0.0653471778556766,"3,4,5,6",SE25 5DP,tube
Woodside Park,51.61786809900362,-0.1854255027302192,4,N12 8SE,tube
Woolwich,51.4915784950453,0.07181937852628936,4,SE18 6EU,tube
Woolwich Arsenal,51.48990723258589,0.06919390669436659,4,SE18 6HX,tube
Woolwich Dockyard,51.49110788693792,0.05461234849340901,3,SE18 5JY,tube
Worcester Park,51.381104087182855,-0.2455752883081527,4,KT4 7ND,tube